NORAD_CAT_ID,OBJECT_NAME,OBJECT_TYPE,EPOCH,MEAN_MOTION,ECCENTRICITY,INCLINATION,RA_OF_ASC_NODE,ARG_OF_PERICENTER,MEAN_ANOMALY,BSTAR,MEAN_MOTION_DOT,MEAN_MOTION_DDOT,TLE_LINE0,TLE_LINE1,TLE_LINE2,SEMIMAJOR_AXIS,PERIOD,APOGEE,PERIGEE,DECAYED
55417.0,STARLINK-5616,PAYLOAD,2023-05-21 06:00:00,15.15488308,0.000334,69.9978,145.1206,270.6589,156.3151,-0.050937,-0.00896811,0.0,0 STARLINK-5616,1 55417U 23014AC  23141.25001157 -.00896811  00000-0 -50937-1 0  9994,2 55417  69.9978 145.1206 0003340 270.6589 156.3151 15.15488308 18259,6897.633,95.019,521.802,517.195,0.0
55417.0,STARLINK-5616,PAYLOAD,2023-05-21 10:28:25,15.16870219,0.0003877,69.9975,144.6427,298.7107,61.3671,-0.014127,-0.00268908,0.0,0 STARLINK-5616,1 55417U 23014AC  23141.43640111 -.00268908  00000-0 -14127-1 0  9994,2 55417  69.9975 144.6427 0003877 298.7107  61.3671 15.16870219 18289,6893.444,94.932,517.981,512.636,0.0
55417.0,STARLINK-5616,PAYLOAD,2023-05-21 22:00:00,15.14193245,0.0003241,69.9978,143.3963,268.0445,193.5143,-0.052297,-0.0088818,0.0,0 STARLINK-5616,1 55417U 23014AC  23141.91667824 -.00888180  00000-0 -52297-1 0  9997,2 55417  69.9978 143.3963 0003241 268.0445 193.5143 15.14193245 18358,6901.566,95.1,525.668,521.194,0.0
55417.0,STARLINK-5616,PAYLOAD,2023-05-22 00:00:00,15.14069724,0.0003136,69.9981,143.181,265.1169,290.5338,-0.056743,-0.009549,0.0,0 STARLINK-5616,1 55417U 23014AC  23142.00001157 -.00954900  00000-0 -56743-1 0  9993,2 55417  69.9981 143.1810 0003136 265.1169 290.5338 15.14069724  1300,6901.941,95.108,525.971,521.642,0.0
55417.0,STARLINK-5616,PAYLOAD,2023-05-22 10:15:24,15.14882348,0.00036,69.9986,142.0872,272.0568,88.0187,-0.0154,-0.00276716,0.0,0 STARLINK-5616,1 55417U 23014AC  23142.42737047 -.00276716  00000-0 -15400-1 0  9990,2 55417  69.9986 142.0872 0003600 272.0568  88.0187 15.14882348 18436,6899.473,95.057,523.822,518.854,0.0
55417.0,STARLINK-5616,PAYLOAD,2023-05-22 14:00:01,15.12933262,0.000314,69.9977,141.6752,273.466,219.5529,-0.060059,-0.00977025,0.0,0 STARLINK-5616,1 55417U 23014AC  23142.58334491 -.00977025  00000-0 -60059-1 0  9994,2 55417  69.9977 141.6752 0003140 273.4660 219.5529 15.12933262 18458,6905.397,95.179,529.43,525.094,0.0
55417.0,STARLINK-5616,PAYLOAD,2023-05-22 22:00:00,15.12243442,0.000317,69.9981,140.8162,267.4665,240.1192,-0.056003,-0.00899517,0.0,0 STARLINK-5616,1 55417U 23014AC  23142.91667824 -.00899517  00000-0 -56003-1 0  9993,2 55417  69.9981 140.8162 0003170 267.4665 240.1192 15.12243442  1306,6907.497,95.223,531.552,527.172,0.0
55417.0,STARLINK-5616,PAYLOAD,2023-05-23 06:00:00,15.1156713,0.000322,69.9981,139.9579,271.4201,249.9606,-0.055955,-0.00883175,0.0,0 STARLINK-5616,1 55417U 23014AC  23143.25001157 -.00883175  00000-0 -55955-1 0  9990,2 55417  69.9981 139.9579 0003220 271.4201 249.9606 15.11567130 18558,6909.557,95.265,533.647,529.197,0.0
55417.0,STARLINK-5616,PAYLOAD,2023-05-23 22:00:00,15.10291222,0.0003143,69.9983,138.2439,266.7477,279.8254,-0.059648,-0.00906853,0.0,0 STARLINK-5616,1 55417U 23014AC  23143.91667824 -.00906853  00000-0 -59648-1 0  9994,2 55417  69.9983 138.2439 0003143 266.7477 279.8254 15.10291222 18650,6913.448,95.346,537.486,533.14,0.0
55417.0,STARLINK-5616,PAYLOAD,2023-05-24 14:00:01,15.09016903,0.0003131,69.9981,136.5332,271.9552,296.757,-0.06679,-0.00974683,0.0,0 STARLINK-5616,1 55417U 23014AC  23144.58335648 -.00974683  00000-0 -66790-1 0  9996,2 55417  69.9981 136.5332 0003131 271.9552 296.7570 15.09016903 18759,6917.34,95.426,541.371,537.039,0.0
55417.0,STARLINK-5616,PAYLOAD,2023-05-24 22:00:00,15.08338328,0.0003174,69.9984,135.6793,266.2008,312.3183,-0.063469,-0.00913893,0.0,0 STARLINK-5616,1 55417U 23014AC  23144.91667824 -.00913893  00000-0 -63469-1 0  9993,2 55417  69.9984 135.6793 0003174 266.2008 312.3183 15.08338328 18801,6919.414,95.469,543.475,539.083,0.0
55417.0,STARLINK-5616,PAYLOAD,2023-05-25 14:00:01,15.07057339,0.0003164,69.9981,133.9736,271.4952,324.4094,-0.070189,-0.00971127,0.0,0 STARLINK-5616,1 55417U 23014AC  23145.58334491 -.00971127  00000-0 -70189-1 0  9999,2 55417  69.9981 133.9736 0003164 271.4952 324.4094 15.07057339 18906,6923.335,95.55,547.39,543.009,0.0
55417.0,STARLINK-5616,PAYLOAD,2023-05-25 22:00:00,15.0638486,0.0003194,69.9983,133.1222,265.9864,337.4396,-0.067336,-0.0091892,0.0,0 STARLINK-5616,1 55417U 23014AC  23145.91667824 -.00918920  00000-0 -67336-1 0  9997,2 55417  69.9983 133.1222 0003194 265.9864 337.4396 15.06384860 18958,6925.395,95.593,549.472,545.048,0.0
55417.0,STARLINK-5616,PAYLOAD,2023-05-26 00:00:02,15.06243669,0.0003337,69.9985,132.9094,266.9311,68.3098,-0.070786,-0.00959019,0.0,0 STARLINK-5616,1 55417U 23014AC  23146.00002315 -.00959019  00000-0 -70786-1 0  9993,2 55417  69.9985 132.9094 0003337 266.9311  68.3098 15.06243669  1302,6925.828,95.602,550.004,545.382,0.0
55417.0,STARLINK-5616,PAYLOAD,2023-05-26 14:00:01,15.0509627,0.0003197,69.9981,131.4216,271.151,344.9684,-0.073526,-0.0097651,0.0,0 STARLINK-5616,1 55417U 23014AC  23146.58334491 -.00976510  00000-0 -73526-1 0  9999,2 55417  69.9981 131.4216 0003197 271.1510 344.9684 15.05096270 19059,6929.347,95.675,553.427,548.997,0.0
55417.0,STARLINK-5616,PAYLOAD,2023-05-26 22:00:01,15.04431598,0.0003227,69.9982,130.5727,265.7568,355.5978,-0.07148,-0.00924932,0.0,0 STARLINK-5616,1 55417U 23014AC  23146.91668981 -.00924932  00000-0 -71480-1 0  9998,2 55417  69.9982 130.5727 0003227 265.7568 355.5978 15.04431598  1301,6931.388,95.717,555.49,551.016,0.0
55417.0,STARLINK-5616,PAYLOAD,2023-05-27 06:00:02,15.03743381,0.0003279,69.9983,129.7245,271.1196,354.644,-0.069359,-0.00884209,0.0,0 STARLINK-5616,1 55417U 23014AC  23147.25002315 -.00884209  00000-0 -69359-1 0  9993,2 55417  69.9983 129.7245 0003279 271.1196 354.6440 15.03743381 19153,6933.503,95.761,557.641,553.094,0.0
55417.0,STARLINK-5616,PAYLOAD,2023-05-27 22:00:00,15.02478652,0.0003249,69.9981,128.0308,264.9474,7.169,-0.075905,-0.00931728,0.0,0 STARLINK-5616,1 55417U 23014AC  23147.91667824 -.00931728  00000-0 -75905-1 0  9991,2 55417  69.9981 128.0308 0003249 264.9474   7.1690 15.02478652 19252,6937.393,95.842,561.512,557.004,0.0
55417.0,STARLINK-5616,PAYLOAD,2023-05-28 06:00:00,15.01787306,0.000326,69.9981,127.1852,270.4135,3.7668,-0.073138,-0.00885034,0.0,0 STARLINK-5616,1 55417U 23014AC  23148.25001157 -.00885034  00000-0 -73138-1 0  9994,2 55417  69.9981 127.1852 0003260 270.4135   3.7668 15.01787306  1307,6939.522,95.886,563.649,559.125,0.0
55417.0,STARLINK-5616,PAYLOAD,2023-05-28 22:00:00,15.00526793,0.0003276,69.998,125.4966,264.0318,11.8688,-0.080701,-0.00950923,0.0,0 STARLINK-5616,1 55417U 23014AC  23148.91667824 -.00950923  00000-0 -80701-1 0  9990,2 55417  69.9980 125.4966 0003276 264.0318  11.8688 15.00526793  1304,6943.408,95.966,567.547,562.998,0.0
55417.0,STARLINK-5616,PAYLOAD,2023-05-29 06:00:00,14.99710471,0.0003301,69.9982,124.6535,271.15,4.4908,-0.047058,-0.00545279,0.0,0 STARLINK-5616,1 55417U 23014AC  23149.25001157 -.00545279  00000-0 -47058-1 0  9991,2 55417  69.9982 124.6535 0003301 271.1500   4.4908 14.99710471 19453,6945.927,96.019,570.085,565.499,0.0
55417.0,STARLINK-5616,PAYLOAD,2023-05-29 14:00:01,14.99316955,0.0003262,69.9982,123.8112,270.2285,4.3036,-0.0040938,-0.00049854,0.0,0 STARLINK-5616,1 55417U 23014AC  23149.58334491 -.00049854  00000-0 -40938-2 0  9996,2 55417  69.9982 123.8112 0003262 270.2285   4.3036 14.99316955 19507,6947.142,96.044,571.274,566.741,0.0
55417.0,STARLINK-5616,PAYLOAD,2023-05-29 22:00:00,14.99286259,0.0003281,69.9989,122.9692,264.2263,8.9394,0.0017122,0.00020911,0.0,0 STARLINK-5616,1 55417U 23014AC  23149.91667824  .00020911  00000-0  17122-2 0  9992,2 55417  69.9989 122.9692 0003281 264.2263   8.9394 14.99286259  1306,6947.237,96.046,571.382,566.823,0.0
55417.0,STARLINK-5616,PAYLOAD,2023-05-30 06:00:00,14.99277188,0.0003266,69.9995,122.1276,269.9684,1.8413,0.0018563,0.0002268,0.0,0 STARLINK-5616,1 55417U 23014AC  23150.25001157  .00022680  00000-0  18563-2 0  9997,2 55417  69.9995 122.1276 0003266 269.9684   1.8413 14.99277188 19602,6947.265,96.046,571.399,566.861,0.0
55417.0,STARLINK-5616,PAYLOAD,2023-05-30 14:00:01,14.99314438,0.0003261,69.9993,121.2858,268.5076,1.9319,-0.0034551,-0.00042134,0.0,0 STARLINK-5616,1 55417U 23014AC  23150.58334491 -.00042134  00000-0 -34551-2 0  9996,2 55417  69.9993 121.2858 0003261 268.5076   1.9319 14.99314438  1305,6947.15,96.044,571.281,566.75,0.0
55417.0,STARLINK-5616,PAYLOAD,2023-05-31 00:00:02,14.99326076,0.0003318,69.9997,120.2336,264.9395,93.8599,-0.002401,-0.0002937,0.0,0 STARLINK-5616,1 55417U 23014AC  23151.00002315 -.00029370  00000-0 -24010-2 0  9997,2 55417  69.9997 120.2336 0003318 264.9395  93.8599 14.99326076  1295,6947.114,96.043,571.284,566.674,0.0
55417.0,STARLINK-5616,PAYLOAD,2023-05-31 06:00:02,14.99291277,0.0003244,69.9995,119.6023,269.7775,358.0288,0.0019914,0.00024352,0.0,0 STARLINK-5616,1 55417U 23014AC  23151.25002315  .00024352  00000-0  19914-2 0  9994,2 55417  69.9995 119.6023 0003244 269.7775 358.0288 14.99291277 19756,6947.222,96.045,571.34,566.833,0.0
55417.0,STARLINK-5616,PAYLOAD,2023-05-31 14:00:01,14.99324197,0.0003203,69.9994,118.7605,267.6297,358.7627,-0.0030839,-0.0003765,0.0,0 STARLINK-5616,1 55417U 23014AC  23151.58334491 -.00037650  00000-0 -30839-2 0  9999,2 55417  69.9994 118.7605 0003203 267.6297 358.7627 14.99324197  1306,6947.12,96.043,571.21,566.76,0.0
55417.0,STARLINK-5616,PAYLOAD,2023-05-31 22:00:00,14.9932037,0.0003225,69.9997,117.919,263.52,1.5248,0.00065888,7.982e-05,0.0,0 STARLINK-5616,1 55417U 23014AC  23151.91667824  .00007982  00000-0  65888-3 0  9991,2 55417  69.9997 117.9190 0003225 263.5200   1.5248 14.99320370  1303,6947.132,96.044,571.237,566.756,0.0
55417.0,STARLINK-5616,PAYLOAD,2023-06-01 06:00:00,14.99310576,0.0003179,69.9996,117.0771,271.1725,352.5544,-0.0016274,-0.00019956,0.0,0 STARLINK-5616,1 55417U 23014AC  23152.25001157 -.00019956  00000-0 -16274-2 0  9990,2 55417  69.9996 117.0771 0003179 271.1725 352.5544 14.99310576 19903,6947.162,96.044,571.236,566.819,0.0
